STARLINK-34304          
1 64224U 25117X   26182.44581649  .00023608  00000+0  80716-3 0  9997
2 64224  53.1576 231.1182 0001504  78.4273 281.6896 15.30180201 61970
STARLINK-34289          
1 64225U 25117Y   26182.44641217  .00030063  00000+0  89657-3 0  9992
2 64225  53.1585 230.4146 0001524 156.2776 203.8297 15.34426089 61981
STARLINK-34347          
1 64226U 25117Z   26182.39600333  .00054533  00000+0  16109-2 0  9990
2 64226  53.1582 230.8090 0001292  81.1041 279.0108 15.34450262 61946
STARLINK-34330          
1 64227U 25117AA  26181.47031882  .00015747  00000+0  54265-3 0  9996
2 64227  53.1587 235.6918 0001160  84.6973 275.4161 15.30201572 61796
STARLINK-34167          
1 64228U 25117AB  26182.43540906  .00037937  00000+0  11282-2 0  9992
2 64228  53.1573 228.9299 0001244  69.4755 290.6381 15.34401583 62007
STARLINK-34241          
1 64229U 25117AC  26182.42959198  .00022930  00000+0  68742-3 0  9990
2 64229  53.1574 230.3766 0001097  89.7147 270.3981 15.34413013 61989
STARLINK-11686 [DTC]    
1 64233U 25119A   26181.56424836  .00143634  00000+0  11023-2 0  9991
2 64233  43.0002 249.0411 0000954 285.0811  74.9951 15.70868844 62995
STARLINK-11682 [DTC]    
1 64234U 25119B   26181.64285369  .00146544  00000+0  11230-2 0  9990
2 64234  42.9994 248.7793 0001471  27.0565 333.0379 15.70893900 63005
STARLINK-11675 [DTC]    
1 64235U 25119C   26181.61099204  .00157523  00000+0  12077-2 0  9998
2 64235  42.9998 248.5218 0000960 330.2347  29.8466 15.70845105 63000
STARLINK-11691 [DTC]    
1 64236U 25119D   26181.65864447  .00148821  00000+0  11409-2 0  9991
2 64236  42.9984 248.0104 0001108 264.1294  95.9447 15.70877260 63017
STARLINK-11670 [DTC]    
1 64237U 25119E   26181.56333603  .00177726  00000+0  13582-2 0  9997
2 64237  42.9991 249.0325 0000836 286.7490  73.3286 15.70857283 62997
STARLINK-11708 [DTC]    
1 64238U 25119F   26181.63222750  .00145177  00000+0  11142-2 0  9991
2 64238  43.0002 248.6882 0001087 259.6639 100.4106 15.70863390 63001
STARLINK-11683 [DTC]    
1 64239U 25119G   26181.58444064  .00170474  00000+0  13053-2 0  9991
2 64239  42.9992 248.3082 0001702 263.4682  96.5991 15.70833933 63009
STARLINK-11684 [DTC]    
1 64240U 25119H   26181.23479636  .00151771  00000+0  11627-2 0  9992
2 64240  43.0006 250.8623 0002064 310.5872  49.4816 15.70882996 62943
STARLINK-11689 [DTC]    
1 64241U 25119J   26182.49582192  .00254003  00000+0  19059-2 0  9993
2 64241  42.9999 243.1134 0005661 238.3201 121.7115 15.71042039 63140
STARLINK-11690 [DTC]    
1 64242U 25119K   26181.66394531  .00170607  00000+0  13040-2 0  9991
2 64242  42.9989 248.0519 0003134 247.3261 112.7276 15.70872850 63015
STARLINK-11694 [DTC]    
1 64243U 25119L   26181.65703179  .00193562  00000+0  11955-2 0  9991
2 64243  42.9942 247.9819 0004047  21.8028 338.3013 15.75765712 63014
STARLINK-11710 [DTC]    
1 64244U 25119M   26182.44818060  .00125403  00000+0  96426-3 0  9992
2 64244  42.9986 243.6208 0001349 272.0283  88.0430 15.70885738 63134
STARLINK-11704 [DTC]    
1 64245U 25119N   26181.58975311  .00170216  00000+0  13036-2 0  9997
2 64245  43.0004 248.3485 0001127 306.4938  53.5825 15.70829103 63005
STARLINK-34203          
1 64246U 25119P   26182.61422181  .00023764  00000+0  86996-3 0  9996
2 64246  43.0032  23.5797 0001278 255.9205 104.1505 15.27593238 61609
STARLINK-33865          
1 64247U 25119Q   26182.27186814  .00026895  00000+0  98308-3 0  9997
2 64247  43.0034  25.3024 0001458 278.2562  81.8125 15.27588051 61515
STARLINK-34234          
1 64248U 25119R   26182.62449756  .00026269  00000+0  95944-3 0  9992
2 64248  43.0018  23.6464 0001560 254.0986 105.9693 15.27623418 61596
STARLINK-34256          
1 64249U 25119S   26182.60651009  .00020175  00000+0  74011-3 0  9999
2 64249  43.0006  23.5125 0001172 265.5351  94.5367 15.27604134 61594
STARLINK-34229          
1 64250U 25119T   26182.25017645  .00021490  00000+0  78773-3 0  9994
2 64250  42.9976  26.0060 0000999 286.0182  74.0560 15.27598382 61531
STARLINK-34224          
1 64251U 25119U   26182.27571760  .00024513  00000+0  89628-3 0  9990
2 64251  43.0051  25.3348 0002943 267.9792  92.0723 15.27616933 61540
STARLINK-34215          
1 64252U 25119V   26181.96678393  .00029692  00000+0  10830-2 0  9997
2 64252  43.0049  27.3180 0001336 308.2758  51.7973 15.27615814 61490
STARLINK-33893          
1 64253U 25119W   26181.98222460  .00018245  00000+0  67113-3 0  9999
2 64253  43.0013  27.4303 0002231 292.4250  67.6365 15.27566704 61490
STARLINK-34183          
1 64254U 25119X   26181.99248329  .00027999  00000+0  10224-2 0  9999
2 64254  43.0011  27.5101 0002212 279.5226  80.5376 15.27602599 61493
STARLINK-34211          
1 64255U 25119Y   26182.25788619  .00036018  00000+0  13105-2 0  9994
2 64255  43.0008  26.0619 0000877 265.7984  94.2767 15.27617655 61531
STARLINK-34329          
1 64256U 25120A   26181.09176780  .00045173  00000+0  13397-2 0  9993
2 64256  53.1604 311.1797 0001163  88.2800 271.8336 15.34408394 61176
