OBJECT_NAME,OBJECT_ID,EPOCH,MEAN_MOTION,ECCENTRICITY,INCLINATION,RA_OF_ASC_NODE,ARG_OF_PERICENTER,MEAN_ANOMALY,EPHEMERIS_TYPE,CLASSIFICATION_TYPE,NORAD_CAT_ID,ELEMENT_SET_NO,REV_AT_EPOCH,BSTAR,MEAN_MOTION_DOT,MEAN_MOTION_DDOT
STARLINK-34304,2025-117X,2026-07-01T10:41:58.544736,15.30180201,.00015041,53.1576,231.1182,78.4273,281.6896,0,U,64224,999,6197,.80716204E-3,.23608E-3,0
STARLINK-34289,2025-117Y,2026-07-01T10:42:50.011488,15.34426089,.00015246,53.1585,230.4146,156.2776,203.8297,0,U,64225,999,6198,.89656894E-3,.30063E-3,0
STARLINK-34347,2025-117Z,2026-07-01T09:30:14.687712,15.34450262,.00012923,53.1582,230.8090,81.1041,279.0108,0,U,64226,999,6194,.16108567E-2,.54533E-3,0
STARLINK-34330,2025-117AA,2026-06-30T11:17:15.546048,15.30201572,.000116,53.1587,235.6918,84.6973,275.4161,0,U,64227,999,6179,.54264988E-3,.15747E-3,0
STARLINK-34167,2025-117AB,2026-07-01T10:26:59.342784,15.34401583,.00012449,53.1573,228.9299,69.4755,290.6381,0,U,64228,999,6200,.1128201E-2,.37937E-3,0
STARLINK-34241,2025-117AC,2026-07-01T10:18:36.747072,15.34413013,.00010973,53.1574,230.3766,89.7147,270.3981,0,U,64229,999,6198,.68741757E-3,.2293E-3,0
STARLINK-11686 [DTC],2025-119A,2026-06-30T13:32:31.058304,15.70868844,.00009548,43.0002,249.0411,285.0811,74.9951,0,U,64233,999,6299,.11023063E-2,.143634E-2,0
STARLINK-11682 [DTC],2025-119B,2026-06-30T15:25:42.558816,15.70893900,.0001471,42.9994,248.7793,27.0565,333.0379,0,U,64234,999,6300,.112298E-2,.146544E-2,0
STARLINK-11675 [DTC],2025-119C,2026-06-30T14:39:49.712256,15.70845105,.00009606,42.9998,248.5218,330.2347,29.8466,0,U,64235,999,6300,.12077287E-2,.157523E-2,0
STARLINK-11691 [DTC],2025-119D,2026-06-30T15:48:26.882208,15.70877260,.00011089,42.9984,248.0104,264.1294,95.9447,0,U,64236,999,6301,.11408639E-2,.148821E-2,0
STARLINK-11670 [DTC],2025-119E,2026-06-30T13:31:12.232992,15.70857283,.00008366,42.9991,249.0325,286.7490,73.3286,0,U,64237,999,6299,.13581568E-2,.177726E-2,0
STARLINK-11708 [DTC],2025-119F,2026-06-30T15:10:24.456000,15.70863390,.00010875,43.0002,248.6882,259.6639,100.4106,0,U,64238,999,6300,.11141585E-2,.145177E-2,0
STARLINK-11683 [DTC],2025-119G,2026-06-30T14:01:35.671296,15.70833933,.00017024,42.9992,248.3082,263.4682,96.5991,0,U,64239,999,6300,.13052893E-2,.170474E-2,0
STARLINK-11684 [DTC],2025-119H,2026-06-30T05:38:06.405504,15.70882996,.00020642,43.0006,250.8623,310.5872,49.4816,0,U,64240,999,6294,.11626766E-2,.151771E-2,0
STARLINK-11689 [DTC],2025-119J,2026-07-01T11:53:59.013888,15.71042039,.00056618,42.9999,243.1134,238.3201,121.7115,0,U,64241,999,6314,.19058763E-2,.254003E-2,0
STARLINK-11690 [DTC],2025-119K,2026-06-30T15:56:04.874784,15.70872850,.00031346,42.9989,248.0519,247.3261,112.7276,0,U,64242,999,6301,.13040022E-2,.170607E-2,0
STARLINK-11694 [DTC],2025-119L,2026-06-30T15:46:07.546656,15.75765712,.00040472,42.9942,247.9819,21.8028,338.3013,0,U,64243,999,6301,.11955377E-2,.193562E-2,0
STARLINK-11710 [DTC],2025-119M,2026-07-01T10:45:22.803840,15.70885738,.00013498,42.9986,243.6208,272.0283,88.0430,0,U,64244,999,6313,.96426261E-3,.125403E-2,0
STARLINK-11704 [DTC],2025-119N,2026-06-30T14:09:14.668704,15.70829103,.00011277,43.0004,248.3485,306.4938,53.5825,0,U,64245,999,6300,.13036463E-2,.170216E-2,0
STARLINK-34203,2025-119P,2026-07-01T14:44:28.764384,15.27593238,.0001278,43.0032,23.5797,255.9205,104.1505,0,U,64246,999,6160,.86995662E-3,.23764E-3,0
STARLINK-33865,2025-119Q,2026-07-01T06:31:29.407296,15.27588051,.0001458,43.0034,25.3024,278.2562,81.8125,0,U,64247,999,6151,.98308E-3,.26895E-3,0
STARLINK-34234,2025-119R,2026-07-01T14:59:16.589184,15.27623418,.00015601,43.0018,23.6464,254.0986,105.9693,0,U,64248,999,6159,.9594359E-3,.26269E-3,0
STARLINK-34256,2025-119S,2026-07-01T14:33:22.471776,15.27604134,.00011723,43.0006,23.5125,265.5351,94.5367,0,U,64249,999,6159,.74010892E-3,.20175E-3,0
STARLINK-34229,2025-119T,2026-07-01T06:00:15.245280,15.27598382,.0000999,42.9976,26.0060,286.0182,74.0560,0,U,64250,999,6153,.78773E-3,.2149E-3,0
STARLINK-34224,2025-119U,2026-07-01T06:37:02.000640,15.27616933,.0002943,43.0051,25.3348,267.9792,92.0723,0,U,64251,999,6154,.89628E-3,.24513E-3,0
STARLINK-34215,2025-119V,2026-06-30T23:12:10.131552,15.27615814,.00013361,43.0049,27.3180,308.2758,51.7973,0,U,64252,999,6149,.10829802E-2,.29692E-3,0
STARLINK-33893,2025-119W,2026-06-30T23:34:24.205440,15.27566704,.00022311,43.0013,27.4303,292.4250,67.6365,0,U,64253,999,6149,.67112847E-3,.18245E-3,0
STARLINK-34183,2025-119X,2026-06-30T23:49:10.556256,15.27602599,.00022129,43.0011,27.5101,279.5226,80.5376,0,U,64254,999,6149,.10224056E-2,.27999E-3,0
STARLINK-34211,2025-119Y,2026-07-01T06:11:21.366816,15.27617655,.0000877,43.0008,26.0619,265.7984,94.2767,0,U,64255,999,6153,.13105E-2,.36018E-3,0
STARLINK-34329,2025-120A,2026-06-30T02:12:08.737920,15.34408394,.00011634,53.1604,311.1797,88.2800,271.8336,0,U,64256,999,6117,.13397069E-2,.45173E-3,0
